[{"OBJECT_NAME":"SSOT","OBJECT_ID":"2011-076E","EPOCH":"2026-03-09T22:23:33.856800","MEAN_MOTION":14.82272424,"ECCENTRICITY":0.00016181,"INCLINATION":97.8182,"RA_OF_ASC_NODE":131.6593,"ARG_OF_PERICENTER":92.448,"MEAN_ANOMALY":13.5994,"EPHEMERIS_TYPE":0,"CLASSIFICATION_TYPE":"U","NORAD_CAT_ID":38011,"ELEMENT_SET_NO":999,"REV_AT_EPOCH":76967,"BSTAR":0.00020589736,"MEAN_MOTION_DOT":1.593e-5,"MEAN_MOTION_DDOT":0},{"OBJECT_NAME":"CSTB 1","OBJECT_ID":"2007-012F","EPOCH":"2026-03-09T21:40:39.805536","MEAN_MOTION":14.72593257,"ECCENTRICITY":0.00636395,"INCLINATION":98.4141,"RA_OF_ASC_NODE":68.0118,"ARG_OF_PERICENTER":219.6201,"MEAN_ANOMALY":140.0346,"EPHEMERIS_TYPE":0,"CLASSIFICATION_TYPE":"U","NORAD_CAT_ID":31122,"ELEMENT_SET_NO":999,"REV_AT_EPOCH":693,"BSTAR":0.00042600934,"MEAN_MOTION_DOT":2.741e-5,"MEAN_MOTION_DDOT":0}]
